LYNK TOWER 6            
1 59123U 24043AB  26068.89488777  .00011440  00000+0  40142-3 0  9996
2 59123  97.5426 204.1954 0009749 232.0253 128.0107 15.29548678111845
STARLINK-35396          
1 65828U 25221F   26068.43105609  .00032866  00000+0  11168-2 0  9994
2 65828  53.1592  89.5566 0001287  90.4869 269.6279 15.30203428 26040
